HST                     
1 20580U 90037B   26170.88142190  .00005365  00000+0  16770-3 0  9995
2 20580  28.4722  62.1612 0001661 171.3368 188.7257 15.30772905788980
POLAR                   
1 23802U 96013A   26170.34772246  .00000090  00000+0  00000+0 0  9992
2 23802  79.8568 227.0270 6472584 209.0042  89.9942  1.29846125144887
SWAS                    
1 25560U 98071A   26170.59984186  .00002136  00000+0  13891-3 0  9995
2 25560  69.8943 221.2973 0008672 257.4269 102.5926 15.09636177497632
CXO                     
1 25867U 99040B   26172.02247085  .00000453  00000+0  00000+0 0  9996
2 25867  56.2474 116.4966 7828329 310.2765   0.2930  0.37807394 17333
XMM-NEWTON              
1 25989U 99066A   26171.34141683 -.00000033  00000+0  00000+0 0  9995
2 25989  64.4680 282.9447 4672330  64.8598   0.1279  0.50127883 23013
TERRA                   
1 25994U 99068A   26170.97348472  .00000272  00000+0  64310-4 0  9999
2 25994  97.9455 220.4093 0001802 180.1913 299.9222 14.61104930410014
CLUSTER II-FM7 (SAMBA)  
1 26410U 00041A   26172.60119800  .00004700  00000+0  00000+0 0  9990
2 26410 149.9156  51.6296 9060156 268.8489 359.5243  0.44827446 20328
CLUSTER II-FM8 (TANGO)  
1 26464U 00045B   26168.43823291  .00013202  00000+0  00000+0 0  9992
2 26464 150.1515  52.0898 9060795 269.1034   2.6615  0.44409350 20310
ODIN                    
1 26702U 01007A   26170.63396130  .00167604  00000+0  10376-2 0  9994
2 26702  97.3812 211.7344 0006767 140.6294 219.5465 15.76561957389782
TIMED                   
1 26998U 01055B   26170.88508083  .00000735  00000+0  70293-4 0  9990
2 26998  74.0670 229.5864 0001272 331.7454  28.3661 14.95298915331225
CORIOLIS                
1 27640U 03001A   26170.59299289  .00000066  00000+0  51487-4 0  9992
2 27640  98.7125 177.4411 0013512 201.5448 158.5161 14.19945392214566
SORCE                   
1 27651U 03004A   26170.66327517  .00001927  00000+0  14867-3 0  9998
2 27651  39.9899 247.5513 0016211  68.1416 292.1100 15.03723045272279
MOST                    
1 27843U 03031D   26170.60477476  .00000033  00000+0  35386-4 0  9992
2 27843  98.7044 178.2971 0008795 242.6336 117.3946 14.21322851191054
SCISAT 1                
1 27858U 03036A   26170.92682032  .00000386  00000+0  53987-4 0  9992
2 27858  73.9283 165.8994 0008465 235.8404 124.1970 14.81449796231851
SWIFT                   
1 28485U 04047A   26170.28587369  .00045354  00000+0  37378-3 0  9997
2 28485  20.5512 168.7076 0001425 322.3693  37.6653 15.68495737187190
HINODE (SOLAR-B)        
1 29479U 06041A   26170.97877470  .00000475  00000+0  90111-4 0  9998
2 29479  98.0544 187.0901 0015963 280.1272  79.8133 14.68626044 55287
SHIJIAN-6 02A (SJ-6 02A)
1 29505U 06046A   26170.92801487  .00004186  00000+0  21551-3 0  9997
2 29505  97.6353 212.0152 0004485 119.2605 240.9077 15.16965334 72689
SHIJIAN-6 02B (SJ-6 02B)
1 29506U 06046B   26170.94556441  .00000802  00000+0  66791-4 0  9994
2 29506  97.7154 199.9876 0015423  52.6800 307.5827 15.01381942 71152
FGRST (GLAST)           
1 33053U 08029A   26170.45484761  .00002109  00000+0  71228-4 0  9993
2 33053  25.5801 188.7359 0007978 355.7577   4.2893 15.23953744996180
SDO                     
1 36395U 10005A   26168.41002763 -.00000096  00000+0  00000+0 0  9992
2 36395  34.6527  86.3378 0001734  44.0102 180.8312  1.00269958 60061
CRYOSAT 2               
1 36508U 10013A   26170.90723506  .00000180  00000+0  43902-4 0  9995
2 36508  92.0358 277.9626 0002136  90.8267 269.3185 14.51900065858471
X-SAT                   
1 37389U 11015C   26170.89332730  .00000072  00000+0  48324-4 0  9992
2 37389  98.3515 147.7880 0013708 340.5607  19.5049 14.25206974788069
GCOM-W1 (SHIZUKU)       
1 38337U 12025A   26170.83883991  .00000335  00000+0  84369-4 0  9993
2 38337  98.2020 111.3542 0001774  73.8915 298.1495 14.57126615749428
NUSTAR                  
1 38358U 12031A   26171.00002315  .00017843  00000+0  10448-2 0  9993
2 38358   6.0282  13.0333 0007667 159.1049 129.6911 15.08818398  1309
NEOSSAT                 
1 39089U 13009D   26170.50916984  .00000099  00000+0  48830-4 0  9994
2 39089  98.4178 350.4865 0009978 236.0484 123.9755 14.35827096697075
BRITE-AUSTRIA           
1 39091U 13009F   26170.29768615  .00000120  00000+0  55501-4 0  9997
2 39091  98.3996 349.6811 0009231 229.4697 130.5686 14.36542792697356
IRIS                    
1 39197U 13033A   26170.52181357  .00000738  00000+0  90715-4 0  9990
2 39197  97.9329   9.7915 0023380 313.8607  46.0676 14.85888859700724
HISAKI (SPRINT-A)       
1 39253U 13049A   26170.55932284  .00000098  00000+0  47733-4 0  9997
2 39253  29.7176 207.9524 0136852  36.0838 324.8883 13.55544913631745
CASSIOPE                
1 39265U 13055A   26170.91723512  .00046492 -44883-6  50616-3 0  9995
2 39265  80.9139  63.4059 0291843  53.3000 309.4665 15.25425577668086
STSAT-3                 
1 39422U 13066G   26170.90938148  .00002866  00000+0  21859-3 0  9993
2 39422  97.6228 140.7540 0011041  37.9140 322.2860 15.02769978684610
SWARM B                 
1 39451U 13067A   26170.88344888  .00002809  00000+0  99881-4 0  9993
2 39451  87.7443 341.4970 0003229  84.3720 275.7898 15.28565186683656
